KUIPER-00008            
1 63724U 25088A   25199.25002315 -.00052153  00000+0 -30954-2 0  9999
2 63724  51.8829  76.2172 0012278  44.8868 319.2195 15.10865158 12889
KUIPER-00009            
1 63725U 25088B   25199.25002315 -.01342813  00000+0 -56476-1 0  9992
2 63725  51.8690  71.2446 0011550  65.4968 248.0193 15.25929641 12945
KUIPER-00010            
1 63726U 25088C   25198.05525497  .00010285  00000+0  30136-3 0  9990
2 63726  51.8652  76.6737 0009941  43.0353 317.1408 15.35758423 12392
KUIPER-00011            
1 63727U 25088D   25199.05562191  .00011959  00000+0  35260-3 0  9996
2 63727  51.8575  72.0707 0011722  53.9421 306.2649 15.35375957 12685
KUIPER-00012            
1 63728U 25088E   25198.07798611  .00010323  00000+0  30582-3 0  9992
2 63728  51.8565  76.7616 0011695  52.0533 308.1508 15.35389405 12484
KUIPER-00013            
1 63729U 25088F   25199.23818516 -.00245852  00000+0 -10103-1 0  9993
2 63729  51.8694  71.7975 0007763  39.6017 320.5530 15.24719615 12751
KUIPER-00014            
1 63730U 25088G   25198.91667824 -.00818321  00000+0 -35814-1 0  9996
2 63730  51.8697  74.1676 0011176  44.8049 314.0834 15.24131541  4838
KUIPER-00015            
1 63731U 25088H   25199.16670139  .00023224  00000+0  18089-2 0  9992
2 63731  51.8833  79.8842 0010405  40.7596  63.6477 15.01071473 12903
